<?xml version="1.0" encoding="UTF-8"?>
<ndm xmlns:xsi="http://www.w3.org/2001/XMLSchema-instance" xsi:noNamespaceSchemaLocation="https://sanaregistry.org/r/ndmxml_unqualified/ndmxml-2.0.0-master-2.0.xsd">
<omm id="CCSDS_OMM_VERS" version="2.0">
<header><CREATION_DATE/><ORIGINATOR/></header><body><segment><metadata><OBJECT_NAME>ONEWEB-0457</OBJECT_NAME><OBJECT_ID>2022-012AB</OBJECT_ID><CENTER_NAME>EARTH</CENTER_NAME><REF_FRAME>TEME</REF_FRAME><TIME_SYSTEM>UTC</TIME_SYSTEM><MEAN_ELEMENT_THEORY>SGP4</MEAN_ELEMENT_THEORY></metadata><data><meanElements><EPOCH>2025-05-02T10:34:10.541856</EPOCH><MEAN_MOTION>13.10373235</MEAN_MOTION><ECCENTRICITY>.0002404</ECCENTRICITY><INCLINATION>87.8792</INCLINATION><RA_OF_ASC_NODE>118.1703</RA_OF_ASC_NODE><ARG_OF_PERICENTER>91.5974</ARG_OF_PERICENTER><MEAN_ANOMALY>268.5428</MEAN_ANOMALY></meanElements><tleParameters><EPHEMERIS_TYPE>0</EPHEMERIS_TYPE><CLASSIFICATION_TYPE>U</CLASSIFICATION_TYPE><NORAD_CAT_ID>51647</NORAD_CAT_ID><ELEMENT_SET_NO>999</ELEMENT_SET_NO><REV_AT_EPOCH>15555</REV_AT_EPOCH><BSTAR>.18704E-2</BSTAR><MEAN_MOTION_DOT>.666E-5</MEAN_MOTION_DOT><MEAN_MOTION_DDOT>0</MEAN_MOTION_DDOT></tleParameters></data></segment></body></omm>
<omm id="CCSDS_OMM_VERS" version="2.0">
<header><CREATION_DATE/><ORIGINATOR/></header><body><segment><metadata><OBJECT_NAME>ONEWEB-0458</OBJECT_NAME><OBJECT_ID>2022-012AC</OBJECT_ID><CENTER_NAME>EARTH</CENTER_NAME><REF_FRAME>TEME</REF_FRAME><TIME_SYSTEM>UTC</TIME_SYSTEM><MEAN_ELEMENT_THEORY>SGP4</MEAN_ELEMENT_THEORY></metadata><data><meanElements><EPOCH>2025-05-02T11:05:13.619616</EPOCH><MEAN_MOTION>13.10371304</MEAN_MOTION><ECCENTRICITY>.0002032</ECCENTRICITY><INCLINATION>87.8775</INCLINATION><RA_OF_ASC_NODE>118.1540</RA_OF_ASC_NODE><ARG_OF_PERICENTER>83.8220</ARG_OF_PERICENTER><MEAN_ANOMALY>276.3139</MEAN_ANOMALY></meanElements><tleParameters><EPHEMERIS_TYPE>0</EPHEMERIS_TYPE><CLASSIFICATION_TYPE>U</CLASSIFICATION_TYPE><NORAD_CAT_ID>51648</NORAD_CAT_ID><ELEMENT_SET_NO>999</ELEMENT_SET_NO><REV_AT_EPOCH>15551</REV_AT_EPOCH><BSTAR>-.96975E-3</BSTAR><MEAN_MOTION_DOT>-.326E-5</MEAN_MOTION_DOT><MEAN_MOTION_DDOT>0</MEAN_MOTION_DDOT></tleParameters></data></segment></body></omm>
<omm id="CCSDS_OMM_VERS" version="2.0">
<header><CREATION_DATE/><ORIGINATOR/></header><body><segment><metadata><OBJECT_NAME>ONEWEB-0461</OBJECT_NAME><OBJECT_ID>2022-012AD</OBJECT_ID><CENTER_NAME>EARTH</CENTER_NAME><REF_FRAME>TEME</REF_FRAME><TIME_SYSTEM>UTC</TIME_SYSTEM><MEAN_ELEMENT_THEORY>SGP4</MEAN_ELEMENT_THEORY></metadata><data><meanElements><EPOCH>2025-05-02T13:35:28.154112</EPOCH><MEAN_MOTION>13.17648206</MEAN_MOTION><ECCENTRICITY>.0002124</ECCENTRICITY><INCLINATION>87.9032</INCLINATION><RA_OF_ASC_NODE>87.6150</RA_OF_ASC_NODE><ARG_OF_PERICENTER>85.0975</ARG_OF_PERICENTER><MEAN_ANOMALY>275.0399</MEAN_ANOMALY></meanElements><tleParameters><EPHEMERIS_TYPE>0</EPHEMERIS_TYPE><CLASSIFICATION_TYPE>U</CLASSIFICATION_TYPE><NORAD_CAT_ID>51649</NORAD_CAT_ID><ELEMENT_SET_NO>999</ELEMENT_SET_NO><REV_AT_EPOCH>15981</REV_AT_EPOCH><BSTAR>.73251E-4</BSTAR><MEAN_MOTION_DOT>.41E-6</MEAN_MOTION_DOT><MEAN_MOTION_DDOT>0</MEAN_MOTION_DDOT></tleParameters></data></segment></body></omm>
<omm id="CCSDS_OMM_VERS" version="2.0">
<header><CREATION_DATE/><ORIGINATOR/></header><body><segment><metadata><OBJECT_NAME>ONEWEB-0463</OBJECT_NAME><OBJECT_ID>2022-012AE</OBJECT_ID><CENTER_NAME>EARTH</CENTER_NAME><REF_FRAME>TEME</REF_FRAME><TIME_SYSTEM>UTC</TIME_SYSTEM><MEAN_ELEMENT_THEORY>SGP4</MEAN_ELEMENT_THEORY></metadata><data><meanElements><EPOCH>2025-05-02T09:30:00.098208</EPOCH><MEAN_MOTION>13.17660072</MEAN_MOTION><ECCENTRICITY>.0002292</ECCENTRICITY><INCLINATION>87.9037</INCLINATION><RA_OF_ASC_NODE>87.7101</RA_OF_ASC_NODE><ARG_OF_PERICENTER>83.7375</ARG_OF_PERICENTER><MEAN_ANOMALY>276.4018</MEAN_ANOMALY></meanElements><tleParameters><EPHEMERIS_TYPE>0</EPHEMERIS_TYPE><CLASSIFICATION_TYPE>U</CLASSIFICATION_TYPE><NORAD_CAT_ID>51650</NORAD_CAT_ID><ELEMENT_SET_NO>999</ELEMENT_SET_NO><REV_AT_EPOCH>15957</REV_AT_EPOCH><BSTAR>-.68704E-2</BSTAR><MEAN_MOTION_DOT>-.2654E-4</MEAN_MOTION_DOT><MEAN_MOTION_DDOT>0</MEAN_MOTION_DDOT></tleParameters></data></segment></body></omm>
<omm id="CCSDS_OMM_VERS" version="2.0">
<header><CREATION_DATE/><ORIGINATOR/></header><body><segment><metadata><OBJECT_NAME>ONEWEB-0464</OBJECT_NAME><OBJECT_ID>2022-012AF</OBJECT_ID><CENTER_NAME>EARTH</CENTER_NAME><REF_FRAME>TEME</REF_FRAME><TIME_SYSTEM>UTC</TIME_SYSTEM><MEAN_ELEMENT_THEORY>SGP4</MEAN_ELEMENT_THEORY></metadata><data><meanElements><EPOCH>2025-05-02T11:00:27.439488</EPOCH><MEAN_MOTION>13.10370205</MEAN_MOTION><ECCENTRICITY>.0001684</ECCENTRICITY><INCLINATION>87.8792</INCLINATION><RA_OF_ASC_NODE>118.1751</RA_OF_ASC_NODE><ARG_OF_PERICENTER>86.3961</ARG_OF_PERICENTER><MEAN_ANOMALY>273.7359</MEAN_ANOMALY></meanElements><tleParameters><EPHEMERIS_TYPE>0</EPHEMERIS_TYPE><CLASSIFICATION_TYPE>U</CLASSIFICATION_TYPE><NORAD_CAT_ID>51651</NORAD_CAT_ID><ELEMENT_SET_NO>999</ELEMENT_SET_NO><REV_AT_EPOCH>15553</REV_AT_EPOCH><BSTAR>-.41197E-3</BSTAR><MEAN_MOTION_DOT>-.131E-5</MEAN_MOTION_DOT><MEAN_MOTION_DDOT>0</MEAN_MOTION_DDOT></tleParameters></data></segment></body></omm>
<omm id="CCSDS_OMM_VERS" version="2.0">
<header><CREATION_DATE/><ORIGINATOR/></header><body><segment><metadata><OBJECT_NAME>ONEWEB-0468</OBJECT_NAME><OBJECT_ID>2022-012AG</OBJECT_ID><CENTER_NAME>EARTH</CENTER_NAME><REF_FRAME>TEME</REF_FRAME><TIME_SYSTEM>UTC</TIME_SYSTEM><MEAN_ELEMENT_THEORY>SGP4</MEAN_ELEMENT_THEORY></metadata><data><meanElements><EPOCH>2025-05-02T12:59:57.289056</EPOCH><MEAN_MOTION>13.10371738</MEAN_MOTION><ECCENTRICITY>.0002</ECCENTRICITY><INCLINATION>87.8794</INCLINATION><RA_OF_ASC_NODE>118.1501</RA_OF_ASC_NODE><ARG_OF_PERICENTER>88.2935</ARG_OF_PERICENTER><MEAN_ANOMALY>271.8421</MEAN_ANOMALY></meanElements><tleParameters><EPHEMERIS_TYPE>0</EPHEMERIS_TYPE><CLASSIFICATION_TYPE>U</CLASSIFICATION_TYPE><NORAD_CAT_ID>51652</NORAD_CAT_ID><ELEMENT_SET_NO>999</ELEMENT_SET_NO><REV_AT_EPOCH>15552</REV_AT_EPOCH><BSTAR>-.14882E-2</BSTAR><MEAN_MOTION_DOT>-.507E-5</MEAN_MOTION_DOT><MEAN_MOTION_DDOT>0</MEAN_MOTION_DDOT></tleParameters></data></segment></body></omm>
<omm id="CCSDS_OMM_VERS" version="2.0">
<header><CREATION_DATE/><ORIGINATOR/></header><body><segment><metadata><OBJECT_NAME>ONEWEB-0473</OBJECT_NAME><OBJECT_ID>2022-012AH</OBJECT_ID><CENTER_NAME>EARTH</CENTER_NAME><REF_FRAME>TEME</REF_FRAME><TIME_SYSTEM>UTC</TIME_SYSTEM><MEAN_ELEMENT_THEORY>SGP4</MEAN_ELEMENT_THEORY></metadata><data><meanElements><EPOCH>2025-05-02T10:48:31.008096</EPOCH><MEAN_MOTION>13.10370712</MEAN_MOTION><ECCENTRICITY>.0002005</ECCENTRICITY><INCLINATION>87.8791</INCLINATION><RA_OF_ASC_NODE>118.1720</RA_OF_ASC_NODE><ARG_OF_PERICENTER>84.8265</ARG_OF_PERICENTER><MEAN_ANOMALY>275.3091</MEAN_ANOMALY></meanElements><tleParameters><EPHEMERIS_TYPE>0</EPHEMERIS_TYPE><CLASSIFICATION_TYPE>U</CLASSIFICATION_TYPE><NORAD_CAT_ID>51653</NORAD_CAT_ID><ELEMENT_SET_NO>999</ELEMENT_SET_NO><REV_AT_EPOCH>15551</REV_AT_EPOCH><BSTAR>.77031E-3</BSTAR><MEAN_MOTION_DOT>.282E-5</MEAN_MOTION_DOT><MEAN_MOTION_DDOT>0</MEAN_MOTION_DDOT></tleParameters></data></segment></body></omm>
<omm id="CCSDS_OMM_VERS" version="2.0">
<header><CREATION_DATE/><ORIGINATOR/></header><body><segment><metadata><OBJECT_NAME>ONEWEB-0474</OBJECT_NAME><OBJECT_ID>2022-012AJ</OBJECT_ID><CENTER_NAME>EARTH</CENTER_NAME><REF_FRAME>TEME</REF_FRAME><TIME_SYSTEM>UTC</TIME_SYSTEM><MEAN_ELEMENT_THEORY>SGP4</MEAN_ELEMENT_THEORY></metadata><data><meanElements><EPOCH>2025-05-02T10:36:34.268256</EPOCH><MEAN_MOTION>13.10372176</MEAN_MOTION><ECCENTRICITY>.0001877</ECCENTRICITY><INCLINATION>87.8783</INCLINATION><RA_OF_ASC_NODE>118.1411</RA_OF_ASC_NODE><ARG_OF_PERICENTER>82.8035</ARG_OF_PERICENTER><MEAN_ANOMALY>277.3306</MEAN_ANOMALY></meanElements><tleParameters><EPHEMERIS_TYPE>0</EPHEMERIS_TYPE><CLASSIFICATION_TYPE>U</CLASSIFICATION_TYPE><NORAD_CAT_ID>51654</NORAD_CAT_ID><ELEMENT_SET_NO>999</ELEMENT_SET_NO><REV_AT_EPOCH>15550</REV_AT_EPOCH><BSTAR>.1817E-2</BSTAR><MEAN_MOTION_DOT>.647E-5</MEAN_MOTION_DOT><MEAN_MOTION_DDOT>0</MEAN_MOTION_DDOT></tleParameters></data></segment></body></omm>
<omm id="CCSDS_OMM_VERS" version="2.0">
<header><CREATION_DATE/><ORIGINATOR/></header><body><segment><metadata><OBJECT_NAME>ONEWEB-0475</OBJECT_NAME><OBJECT_ID>2022-012AK</OBJECT_ID><CENTER_NAME>EARTH</CENTER_NAME><REF_FRAME>TEME</REF_FRAME><TIME_SYSTEM>UTC</TIME_SYSTEM><MEAN_ELEMENT_THEORY>SGP4</MEAN_ELEMENT_THEORY></metadata><data><meanElements><EPOCH>2025-05-02T07:57:41.213664</EPOCH><MEAN_MOTION>13.17646961</MEAN_MOTION><ECCENTRICITY>.0002043</ECCENTRICITY><INCLINATION>87.9035</INCLINATION><RA_OF_ASC_NODE>87.7024</RA_OF_ASC_NODE><ARG_OF_PERICENTER>61.9414</ARG_OF_PERICENTER><MEAN_ANOMALY>298.1924</MEAN_ANOMALY></meanElements><tleParameters><EPHEMERIS_TYPE>0</EPHEMERIS_TYPE><CLASSIFICATION_TYPE>U</CLASSIFICATION_TYPE><NORAD_CAT_ID>51655</NORAD_CAT_ID><ELEMENT_SET_NO>999</ELEMENT_SET_NO><REV_AT_EPOCH>15958</REV_AT_EPOCH><BSTAR>.11503E-3</BSTAR><MEAN_MOTION_DOT>.58E-6</MEAN_MOTION_DOT><MEAN_MOTION_DDOT>0</MEAN_MOTION_DDOT></tleParameters></data></segment></body></omm>

</ndm>
